NORAD_CAT_ID,OBJECT_NAME,OBJECT_TYPE,EPOCH,MEAN_MOTION,ECCENTRICITY,INCLINATION,RA_OF_ASC_NODE,ARG_OF_PERICENTER,MEAN_ANOMALY,BSTAR,MEAN_MOTION_DOT,MEAN_MOTION_DDOT,TLE_LINE0,TLE_LINE1,TLE_LINE2,SEMIMAJOR_AXIS,PERIOD,APOGEE,PERIGEE,DECAYED
56454.0,STARLINK-5959,PAYLOAD,2024-08-17 05:02:26,14.98351123,0.0002844,70.0024,140.3149,265.1824,94.901,1.2776e-05,6e-07,0.0,0 STARLINK-5959,1 56454U 23064G   24230.21003237  .00000060  00000-0  12776-4 0  9991,2 56454  70.0024 140.3149 0002844 265.1824  94.9010 14.98351123 70307,6950.128,96.106,573.969,570.016,0.0
56454.0,STARLINK-5959,PAYLOAD,2024-08-18 03:28:19,14.98334711,0.0003079,70.0032,137.9584,243.1651,116.9194,-0.00011542,-1.47e-05,0.0,0 STARLINK-5959,1 56454U 23064G   24231.14467256 -.00001470  00000-0 -11542-3 0  9996,2 56454  70.0032 137.9584 0003079 243.1651 116.9194 14.98334711 70443,6950.178,96.107,574.183,569.903,0.0
56454.0,STARLINK-5959,PAYLOAD,2024-08-18 21:05:49,14.9832965,0.0002702,70.003,136.1057,258.2626,101.823,3.3842e-05,3.11e-06,0.0,0 STARLINK-5959,1 56454U 23064G   24231.87903974  .00000311  00000-0  33842-4 0  9997,2 56454  70.0030 136.1057 0002702 258.2626 101.8230 14.98329650 70550,6950.194,96.107,573.937,570.181,0.0
56454.0,STARLINK-5959,PAYLOAD,2024-08-18 22:41:56,14.98340405,0.0002747,70.0026,135.9374,248.8426,111.244,-0.0003559,-4.338e-05,0.0,0 STARLINK-5959,1 56454U 23064G   24231.94579482 -.00004338  00000-0 -35590-3 0  9994,2 56454  70.0026 135.9374 0002747 248.8426 111.2440 14.98340405 70207,6950.161,96.106,573.935,570.117,0.0
56454.0,STARLINK-5959,PAYLOAD,2024-08-19 11:31:01,14.98332526,0.0002837,70.0024,134.5893,261.755,98.3287,-3.5616e-05,-5.18e-06,0.0,0 STARLINK-5959,1 56454U 23064G   24232.47987916 -.00000518  00000-0 -35616-4 0  9994,2 56454  70.0024 134.5893 0002837 261.7550  98.3287 14.98332526 70285,6950.185,96.107,574.022,570.078,0.0
56454.0,STARLINK-5959,PAYLOAD,2024-08-19 21:07:50,14.98313983,0.0002657,70.0022,133.5797,264.7791,95.3065,0.00072543,8.57e-05,0.0,0 STARLINK-5959,1 56454U 23064G   24232.88044861  .00008570  00000-0  72543-3 0  9995,2 56454  70.0022 133.5797 0002657 264.7791  95.3065 14.98313983 70709,6950.242,96.108,573.954,570.261,0.0
56454.0,STARLINK-5959,PAYLOAD,2024-08-20 03:32:22,14.98338035,0.0002807,70.0021,132.907,267.0134,93.0704,0.00010427,1.152e-05,0.0,0 STARLINK-5959,1 56454U 23064G   24233.14747811  .00001152  00000-0  10427-3 0  9992,2 56454  70.0021 132.9070 0002807 267.0134  93.0704 14.98338035 70743,6950.168,96.106,573.984,570.082,0.0
56454.0,STARLINK-5959,PAYLOAD,2024-08-20 21:09:51,14.98318422,0.0003396,70.0014,131.0555,278.9914,81.0861,-0.00017589,-2.19e-05,0.0,0 STARLINK-5959,1 56454U 23064G   24233.88184625 -.00002190  00000-0 -17589-3 0  9992,2 56454  70.0014 131.0555 0003396 278.9914  81.0861 14.98318422 70855,6950.229,96.108,574.454,569.733,0.0
56454.0,STARLINK-5959,PAYLOAD,2024-08-21 03:34:24,14.98323018,0.0002988,70.0005,130.3828,267.705,92.3767,2.0692e-05,1.54e-06,0.0,0 STARLINK-5959,1 56454U 23064G   24234.14888945  .00000154  00000-0  20692-4 0  9994,2 56454  70.0005 130.3828 0002988 267.7050  92.3767 14.98323018 70535,6950.214,96.107,574.156,570.003,0.0
56454.0,STARLINK-5959,PAYLOAD,2024-08-21 19:35:43,14.98334778,0.0003253,70.001,128.6997,270.5938,89.4849,0.00016142,1.834e-05,0.0,0 STARLINK-5959,1 56454U 23064G   24234.81647965  .00001834  00000-0  16142-3 0  9993,2 56454  70.0010 128.6997 0003253 270.5938  89.4849 14.98334778 70635,6950.178,96.107,574.304,569.782,0.0
56454.0,STARLINK-5959,PAYLOAD,2024-08-21 22:47:59,14.98335991,0.0003325,70.0007,128.3626,272.7623,87.3155,0.00019728,2.262e-05,0.0,0 STARLINK-5959,1 56454U 23064G   24234.94999938  .00002262  00000-0  19728-3 0  9996,2 56454  70.0007 128.3626 0003325 272.7623  87.3155 14.98335991 71010,6950.174,96.107,574.35,569.728,0.0
